[{"OBJECT_NAME":"CHUANGXIN 16A (CX-16A)","OBJECT_ID":"2022-102A","EPOCH":"2026-03-09T19:59:28.991616","MEAN_MOTION":15.05552649,"ECCENTRICITY":0.0005063,"INCLINATION":28.9941,"RA_OF_ASC_NODE":256.1289,"ARG_OF_PERICENTER":43.7318,"MEAN_ANOMALY":316.3682,"EPHEMERIS_TYPE":0,"CLASSIFICATION_TYPE":"U","NORAD_CAT_ID":53586,"ELEMENT_SET_NO":999,"REV_AT_EPOCH":19453,"BSTAR":0.00020134,"MEAN_MOTION_DOT":3.128e-5,"MEAN_MOTION_DDOT":0},{"OBJECT_NAME":"STARLINK-5168","OBJECT_ID":"2022-136W","EPOCH":"2026-03-09T22:05:11.176800","MEAN_MOTION":15.08851703,"ECCENTRICITY":0.00024416,"INCLINATION":53.2172,"RA_OF_ASC_NODE":342.7407,"ARG_OF_PERICENTER":126.5718,"MEAN_ANOMALY":233.5499,"EPHEMERIS_TYPE":0,"CLASSIFICATION_TYPE":"U","NORAD_CAT_ID":54071,"ELEMENT_SET_NO":999,"REV_AT_EPOCH":18688,"BSTAR":0.0001218469,"MEAN_MOTION_DOT":1.652e-5,"MEAN_MOTION_DDOT":0}]
